{
  "norad_id": 60734,
  "name": "STARLINK-32179",
  "history": [
    {
      "epoch": "2026-03-28T18:00:06.378048",
      "apogee_km": 475.94794821837604,
      "perigee_km": 474.470366786818,
      "latitude_deg": 14.902523135283186,
      "longitude_deg": -34.59291328024119,
      "semi_major_axis_km": 6853.346157502597,
      "eccentricity": 0.0001078,
      "inclination_deg": 53.1615,
      "raan_deg": 180.2809,
      "arg_perigee_deg": 84.8921,
      "mean_anomaly_deg": 275.2203,
      "mean_motion_rev_day": 15.3020198
    }
  ]
}